STARLINK-3046           
1 49169U 21082AR  25265.25003472 -.00002478  00000+0 -19994-3 0  9992
2 49169  70.0020 339.1633 0003211 267.8475   7.1921 14.98334549  5717
STARLINK-3107           
1 49171U 21082AT  25265.25767997  .00018955  00000+0  14357-2 0  9996
2 49171  70.0009 358.1255 0001831 224.6460 135.4554 15.02297752221930
STARLINK-3045           
1 49173U 21082AV  25265.25328540  .00000689  00000+0  65505-4 0  9993
2 49173  70.0002 339.1378 0003125 269.6366  90.4435 14.98332112221248
STARLINK-3047           
1 49174U 21082AW  25265.25003472  .00325541  00000+0  21011-2 0  9997
2 49174  69.9760 276.2127 0006327 309.3742 195.0686 15.75009069  6000
STARLINK-3087           
1 49175U 21082AX  25265.28046698  .00007024  00000+0  60805-3 0  9996
2 49175  70.0019 339.4646 0003694 267.5997  92.4739 14.97539194221233
STARLINK-3069           
1 49176U 21082AY  25265.26974259  .00000385  00000+0  40045-4 0  9996
2 49176  69.9994 319.0998 0003263 267.2023  92.8763 14.98334514221732
STARLINK-3103           
1 49177U 21082AZ  25265.29060711  .00001314  00000+0  11790-3 0  9996
2 49177  69.9986 319.0579 0003168 269.5985  90.4811 14.98333511222932
STARLINK-3086           
1 49178U 21082BA  25265.24934232  .00000093  00000+0  15582-4 0  9997
2 49178  70.0017 359.1448 0003122 268.6439  91.4363 14.98336076221903
STARLINK-3043           
1 49179U 21082BB  25265.27808790  .00000515  00000+0  50984-4 0  9994
2 49179  69.9992 319.0721 0003391 268.4382  91.6389 14.98333643221733
STARLINK-3050           
1 49180U 21082BC  25265.26163332  .00000834  00000+0  77671-4 0  9997
2 49180  70.0003 339.1222 0003557 266.3094  93.7658 14.98333155222417
STARLINK-3059           
1 49181U 21082BD  25265.23265774 -.00000002  00000+0  75917-5 0  9998
2 49181  70.0014 359.2000 0003241 272.1793  87.8995 14.98327762221939
STARLINK-3151           
1 49408U 21104A   25265.26439136  .00002506  00000+0  17548-3 0  9997
2 49408  53.2161 265.2413 0001275  76.4174 283.6960 15.08847349213203
STARLINK-3075           
1 49409U 21104B   25265.27814261  .00000445  00000+0  46060-4 0  9997
2 49409  53.2155 265.1520 0001316  85.9119 274.2023 15.08846312213211
STARLINK-3147           
1 49410U 21104C   25265.27173873  .00001005  00000+0  81244-4 0  9992
2 49410  53.2160 265.1885 0001329  86.4493 273.6651 15.08843199213207
STARLINK-3162           
1 49411U 21104D   25265.26434655 -.00000434  00000+0 -92075-5 0  9992
2 49411  53.2156 255.2125 0001325  90.0801 270.0343 15.08834750213347
STARLINK-3157           
1 49413U 21104F   25265.26161811 -.00000199  00000+0  56189-5 0  9998
2 49413  53.2157 255.2350 0001447  91.0813 269.0345 15.08842633213348
