[{"OBJECT_NAME":"STARLINK-3046","OBJECT_ID":"2021-082AR","EPOCH":"2025-09-22T06:00:02.999808","MEAN_MOTION":14.98334549,"ECCENTRICITY":0.00032117,"INCLINATION":70.002,"RA_OF_ASC_NODE":339.1633,"ARG_OF_PERICENTER":267.8475,"MEAN_ANOMALY":7.1921,"EPHEMERIS_TYPE":0,"CLASSIFICATION_TYPE":"U","NORAD_CAT_ID":49169,"ELEMENT_SET_NO":999,"REV_AT_EPOCH":571,"BSTAR":-0.00019993872,"MEAN_MOTION_DOT":-2.478e-5,"MEAN_MOTION_DDOT":0},{"OBJECT_NAME":"STARLINK-3107","OBJECT_ID":"2021-082AT","EPOCH":"2025-09-22T06:11:03.549408","MEAN_MOTION":15.02297752,"ECCENTRICITY":0.00018316,"INCLINATION":70.0009,"RA_OF_ASC_NODE":358.1255,"ARG_OF_PERICENTER":224.646,"MEAN_ANOMALY":135.4554,"EPHEMERIS_TYPE":0,"CLASSIFICATION_TYPE":"U","NORAD_CAT_ID":49171,"ELEMENT_SET_NO":999,"REV_AT_EPOCH":22193,"BSTAR":0.0014357123,"MEAN_MOTION_DOT":0.00018955,"MEAN_MOTION_DDOT":0},{"OBJECT_NAME":"STARLINK-3045","OBJECT_ID":"2021-082AV","EPOCH":"2025-09-22T06:04:43.858560","MEAN_MOTION":14.98332112,"ECCENTRICITY":0.00031259,"INCLINATION":70.0002,"RA_OF_ASC_NODE":339.1378,"ARG_OF_PERICENTER":269.6366,"MEAN_ANOMALY":90.4435,"EPHEMERIS_TYPE":0,"CLASSIFICATION_TYPE":"U","NORAD_CAT_ID":49173,"ELEMENT_SET_NO":999,"REV_AT_EPOCH":22124,"BSTAR":6.5504654e-5,"MEAN_MOTION_DOT":6.89e-6,"MEAN_MOTION_DDOT":0},{"OBJECT_NAME":"STARLINK-3047","OBJECT_ID":"2021-082AW","EPOCH":"2025-09-22T06:00:02.999808","MEAN_MOTION":15.75009069,"ECCENTRICITY":0.00063275,"INCLINATION":69.976,"RA_OF_ASC_NODE":276.2127,"ARG_OF_PERICENTER":309.3742,"MEAN_ANOMALY":195.0686,"EPHEMERIS_TYPE":0,"CLASSIFICATION_TYPE":"U","NORAD_CAT_ID":49174,"ELEMENT_SET_NO":999,"REV_AT_EPOCH":600,"BSTAR":0.0021011401,"MEAN_MOTION_DOT":0.00325541,"MEAN_MOTION_DDOT":0},{"OBJECT_NAME":"STARLINK-3087","OBJECT_ID":"2021-082AX","EPOCH":"2025-09-22T06:43:52.347072","MEAN_MOTION":14.97539194,"ECCENTRICITY":0.00036946,"INCLINATION":70.0019,"RA_OF_ASC_NODE":339.4646,"ARG_OF_PERICENTER":267.5997,"MEAN_ANOMALY":92.4739,"EPHEMERIS_TYPE":0,"CLASSIFICATION_TYPE":"U","NORAD_CAT_ID":49175,"ELEMENT_SET_NO":999,"REV_AT_EPOCH":22123,"BSTAR":0.00060804921,"MEAN_MOTION_DOT":7.024e-5,"MEAN_MOTION_DDOT":0},{"OBJECT_NAME":"STARLINK-3069","OBJECT_ID":"2021-082AY","EPOCH":"2025-09-22T06:28:25.759776","MEAN_MOTION":14.98334514,"ECCENTRICITY":0.0003263,"INCLINATION":69.9994,"RA_OF_ASC_NODE":319.0998,"ARG_OF_PERICENTER":267.2023,"MEAN_ANOMALY":92.8763,"EPHEMERIS_TYPE":0,"CLASSIFICATION_TYPE":"U","NORAD_CAT_ID":49176,"ELEMENT_SET_NO":999,"REV_AT_EPOCH":22173,"BSTAR":4.0044949e-5,"MEAN_MOTION_DOT":3.85e-6,"MEAN_MOTION_DDOT":0},{"OBJECT_NAME":"STARLINK-3103","OBJECT_ID":"2021-082AZ","EPOCH":"2025-09-22T06:58:28.454304","MEAN_MOTION":14.98333511,"ECCENTRICITY":0.00031684,"INCLINATION":69.9986,"RA_OF_ASC_NODE":319.0579,"ARG_OF_PERICENTER":269.5985,"MEAN_ANOMALY":90.4811,"EPHEMERIS_TYPE":0,"CLASSIFICATION_TYPE":"U","NORAD_CAT_ID":49177,"ELEMENT_SET_NO":999,"REV_AT_EPOCH":22293,"BSTAR":0.00011790044,"MEAN_MOTION_DOT":1.314e-5,"MEAN_MOTION_DDOT":0},{"OBJECT_NAME":"STARLINK-3086","OBJECT_ID":"2021-082BA","EPOCH":"2025-09-22T05:59:03.176448","MEAN_MOTION":14.98336076,"ECCENTRICITY":0.00031222,"INCLINATION":70.0017,"RA_OF_ASC_NODE":359.1448,"ARG_OF_PERICENTER":268.6439,"MEAN_ANOMALY":91.4363,"EPHEMERIS_TYPE":0,"CLASSIFICATION_TYPE":"U","NORAD_CAT_ID":49178,"ELEMENT_SET_NO":999,"REV_AT_EPOCH":22190,"BSTAR":1.5581855e-5,"MEAN_MOTION_DOT":9.3e-7,"MEAN_MOTION_DDOT":0},{"OBJECT_NAME":"STARLINK-3043","OBJECT_ID":"2021-082BB","EPOCH":"2025-09-22T06:40:26.794560","MEAN_MOTION":14.98333643,"ECCENTRICITY":0.00033913,"INCLINATION":69.9992,"RA_OF_ASC_NODE":319.0721,"ARG_OF_PERICENTER":268.4382,"MEAN_ANOMALY":91.6389,"EPHEMERIS_TYPE":0,"CLASSIFICATION_TYPE":"U","NORAD_CAT_ID":49179,"ELEMENT_SET_NO":999,"REV_AT_EPOCH":22173,"BSTAR":5.0984029e-5,"MEAN_MOTION_DOT":5.15e-6,"MEAN_MOTION_DDOT":0},{"OBJECT_NAME":"STARLINK-3050","OBJECT_ID":"2021-082BC","EPOCH":"2025-09-22T06:16:45.118848","MEAN_MOTION":14.98333155,"ECCENTRICITY":0.00035572,"INCLINATION":70.0003,"RA_OF_ASC_NODE":339.1222,"ARG_OF_PERICENTER":266.3094,"MEAN_ANOMALY":93.7658,"EPHEMERIS_TYPE":0,"CLASSIFICATION_TYPE":"U","NORAD_CAT_ID":49180,"ELEMENT_SET_NO":999,"REV_AT_EPOCH":22241,"BSTAR":7.7671488e-5,"MEAN_MOTION_DOT":8.34e-6,"MEAN_MOTION_DDOT":0},{"OBJECT_NAME":"STARLINK-3059","OBJECT_ID":"2021-082BD","EPOCH":"2025-09-22T05:35:01.628736","MEAN_MOTION":14.98327762,"ECCENTRICITY":0.00032415,"INCLINATION":70.0014,"RA_OF_ASC_NODE":359.2,"ARG_OF_PERICENTER":272.1793,"MEAN_ANOMALY":87.8995,"EPHEMERIS_TYPE":0,"CLASSIFICATION_TYPE":"U","NORAD_CAT_ID":49181,"ELEMENT_SET_NO":999,"REV_AT_EPOCH":22193,"BSTAR":7.591696e-6,"MEAN_MOTION_DOT":-2.0e-8,"MEAN_MOTION_DDOT":0},{"OBJECT_NAME":"STARLINK-3151","OBJECT_ID":"2021-104A","EPOCH":"2025-09-22T06:20:43.413504","MEAN_MOTION":15.08847349,"ECCENTRICITY":0.0001275,"INCLINATION":53.2161,"RA_OF_ASC_NODE":265.2413,"ARG_OF_PERICENTER":76.4174,"MEAN_ANOMALY":283.696,"EPHEMERIS_TYPE":0,"CLASSIFICATION_TYPE":"U","NORAD_CAT_ID":49408,"ELEMENT_SET_NO":999,"REV_AT_EPOCH":21320,"BSTAR":0.00017547513,"MEAN_MOTION_DOT":2.506e-5,"MEAN_MOTION_DDOT":0},{"OBJECT_NAME":"STARLINK-3075","OBJECT_ID":"2021-104B","EPOCH":"2025-09-22T06:40:31.521504","MEAN_MOTION":15.08846312,"ECCENTRICITY":0.00013169,"INCLINATION":53.2155,"RA_OF_ASC_NODE":265.152,"ARG_OF_PERICENTER":85.9119,"MEAN_ANOMALY":274.2023,"EPHEMERIS_TYPE":0,"CLASSIFICATION_TYPE":"U","NORAD_CAT_ID":49409,"ELEMENT_SET_NO":999,"REV_AT_EPOCH":21321,"BSTAR":4.6059935e-5,"MEAN_MOTION_DOT":4.45e-6,"MEAN_MOTION_DDOT":0},{"OBJECT_NAME":"STARLINK-3147","OBJECT_ID":"2021-104C","EPOCH":"2025-09-22T06:31:18.226272","MEAN_MOTION":15.08843199,"ECCENTRICITY":0.00013298,"INCLINATION":53.216,"RA_OF_ASC_NODE":265.1885,"ARG_OF_PERICENTER":86.4493,"MEAN_ANOMALY":273.6651,"EPHEMERIS_TYPE":0,"CLASSIFICATION_TYPE":"U","NORAD_CAT_ID":49410,"ELEMENT_SET_NO":999,"REV_AT_EPOCH":21320,"BSTAR":8.1243985e-5,"MEAN_MOTION_DOT":1.005e-5,"MEAN_MOTION_DDOT":0},{"OBJECT_NAME":"STARLINK-3162","OBJECT_ID":"2021-104D","EPOCH":"2025-09-22T06:20:39.541920","MEAN_MOTION":15.0883475,"ECCENTRICITY":0.00013252,"INCLINATION":53.2156,"RA_OF_ASC_NODE":255.2125,"ARG_OF_PERICENTER":90.0801,"MEAN_ANOMALY":270.0343,"EPHEMERIS_TYPE":0,"CLASSIFICATION_TYPE":"U","NORAD_CAT_ID":49411,"ELEMENT_SET_NO":999,"REV_AT_EPOCH":21334,"BSTAR":-9.207469e-6,"MEAN_MOTION_DOT":-4.34e-6,"MEAN_MOTION_DDOT":0},{"OBJECT_NAME":"STARLINK-3157","OBJECT_ID":"2021-104F","EPOCH":"2025-09-22T06:16:43.804704","MEAN_MOTION":15.08842633,"ECCENTRICITY":0.00014477,"INCLINATION":53.2157,"RA_OF_ASC_NODE":255.235,"ARG_OF_PERICENTER":91.0813,"MEAN_ANOMALY":269.0345,"EPHEMERIS_TYPE":0,"CLASSIFICATION_TYPE":"U","NORAD_CAT_ID":49413,"ELEMENT_SET_NO":999,"REV_AT_EPOCH":21334,"BSTAR":5.61886e-6,"MEAN_MOTION_DOT":-1.99e-6,"MEAN_MOTION_DDOT":0}]
